ALOS-2                  
1 39766U 14029A   26068.85408325  .00001596  00000+0  22033-3 0  9997
2 39766  97.9188 167.4487 0001434  94.3499 265.7876 14.79504300636898
YAOGAN-29               
1 41038U 15069A   26068.86195115  .00000196  00000+0  30778-4 0  9999
2 41038  98.0144  97.2918 0001924  36.9695 323.1650 14.82995185555900
ASTRO-H (HITOMI)        
1 41337U 16012A   26068.17138105  .00004351  00000+0  25537-3 0  9993
2 41337  31.0008 359.8923 0009877 325.8962  34.1041 15.10001629552153
HXMT (HUIYAN)           
1 42758U 17034A   26068.90928358  .00007794  00000+0  38825-3 0  9992
2 42758  43.0157  15.4521 0032951 237.3240 122.4429 15.17467944482575
SAOCOM 1A               
1 43641U 18076A   26068.82797447  .00001407  00000+0  18317-3 0  9994
2 43641  97.8894 256.9984 0001328  84.0114 276.1250 14.82173547401381
H-2A R/B                
1 43682U 18084L   26068.60301080  .00020990  00000+0  49941-3 0  9993
2 43682  98.8729 285.9721 0025468  25.6211 334.6287 15.41344491405765
SAOCOM 1B               
1 46265U 20059A   26065.95626301  .00001349  00000+0  17595-3 0  9996
2 46265  97.8885 253.2654 0001504  81.2285 278.9098 14.82173062298346
CSS (TIANHE)            
1 48274U 21035A   26068.58759433  .00025302  00000+0  29943-3 0  9993
2 48274  41.4666 208.7841 0006982 272.7102  87.2938 15.60651211277595
COSMOS 2550             
1 48865U 21056A   26067.47400841 -.00000192  00000+0 -13338-7 0  9992
2 48865  67.1451  44.6088 0008369 269.6014  90.4182 15.33829151263273
CZ-2C R/B               
1 52794U 22058K   26068.12659810  .00042727  00000+0  62256-3 0  9993
2 52794  50.1894 321.1865 0042159 198.4704 161.4738 15.54191438210044
CZ-2C R/B               
1 54039U 22132E   26068.56386821  .00039978  00000+0  45659-3 0  9999
2 54039  97.2972  71.8768 0020632  91.8631 268.4991 15.61827128190355
GSLV R/B                
1 54149U 22138AN  26068.72082442  .00003719  00000+0  32105-3 0  9993
2 54149  87.3876 166.3520 0023020 146.6269 213.6419 14.96774296183933
